[
    {
        "Altitude(m)": 571465.8533852884,
        "Argument of Periapsis(deg)": -0.015068773855314936,
        "Eccentricity": 0.0,
        "Inclination(deg)": 97.0,
        "Latitude(deg)": 50.31309162122864,
        "Longitude(deg)": -153.0907520139145,
        "Mean Anomaly(deg)": 129.28529551279166,
        "RAAN(deg)": 120.00396470241235,
        "Satellite Name": "Starlink Shell 3 1833",
        "Satellite Number": 1833,
        "Semi-Major Axis(m)": 6938478.169268562,
        "Time(s)": 380
    },
    {
        "Altitude(m)": 571325.1793548226,
        "Argument of Periapsis(deg)": -0.015465320535717962,
        "Eccentricity": 0.0,
        "Inclination(deg)": 97.0,
        "Latitude(deg)": 49.69895046637652,
        "Longitude(deg)": -153.31595052576156,
        "Mean Anomaly(deg)": 129.9107717104967,
        "RAAN(deg)": 120.00406903668635,
        "Satellite Name": "Starlink Shell 3 1833",
        "Satellite Number": 1833,
        "Semi-Major Axis(m)": 6938478.169268562,
        "Time(s)": 390
    },
    {
        "Altitude(m)": 571184.415491938,
        "Argument of Periapsis(deg)": -0.015861867216120987,
        "Eccentricity": 0.0,
        "Inclination(deg)": 97.0,
        "Latitude(deg)": 49.08445263226934,
        "Longitude(deg)": -153.5365881863134,
        "Mean Anomaly(deg)": 130.53624790820177,
        "RAAN(deg)": 120.00417337096037,
        "Satellite Name": "Starlink Shell 3 1833",
        "Satellite Number": 1833,
        "Semi-Major Axis(m)": 6938478.169268562,
        "Time(s)": 400
    },
    {
        "Altitude(m)": 571043.6476144453,
        "Argument of Periapsis(deg)": -0.01625841389652401,
        "Eccentricity": 0.0,
        "Inclination(deg)": 97.0,
        "Latitude(deg)": 48.46961072257529,
        "Longitude(deg)": -153.75287038939294,
        "Mean Anomaly(deg)": 131.16172410590676,
        "RAAN(deg)": 120.00427770523437,
        "Satellite Name": "Starlink Shell 3 1833",
        "Satellite Number": 1833,
        "Semi-Major Axis(m)": 6938478.169268562,
        "Time(s)": 410
    },
    {
        "Altitude(m)": 570902.9618093108,
        "Argument of Periapsis(deg)": -0.016654960576927034,
        "Eccentricity": 0.0,
        "Inclination(deg)": 97.0,
        "Latitude(deg)": 47.85443664834574,
        "Longitude(deg)": -153.96499143311618,
        "Mean Anomaly(deg)": 131.78720030361183,
        "RAAN(deg)": 120.00438203950834,
        "Satellite Name": "Starlink Shell 3 1833",
        "Satellite Number": 1833,
        "Semi-Major Axis(m)": 6938478.169268562,
        "Time(s)": 420
    },
    {
        "Altitude(m)": 570762.4443895328,
        "Argument of Periapsis(deg)": -0.01705150725733006,
        "Eccentricity": 0.0,
        "Inclination(deg)": 97.0,
        "Latitude(deg)": 47.238941680038785,
        "Longitude(deg)": -154.17313482531773,
        "Mean Anomaly(deg)": 132.41267650131687,
        "RAAN(deg)": 120.00448637378237,
        "Satellite Name": "Starlink Shell 3 1833",
        "Satellite Number": 1833,
        "Semi-Major Axis(m)": 6938478.169268562,
        "Time(s)": 430
    },
    {
        "Altitude(m)": 570622.1818508036,
        "Argument of Periapsis(deg)": -0.017448053937733084,
        "Eccentricity": 0.0,
        "Inclination(deg)": 97.0,
        "Latitude(deg)": 46.62313649522247,
        "Longitude(deg)": -154.37747352302713,
        "Mean Anomaly(deg)": 133.03815269902185,
        "RAAN(deg)": 120.00459070805638,
        "Satellite Name": "Starlink Shell 3 1833",
        "Satellite Number": 1833,
        "Semi-Major Axis(m)": 6938478.169268562,
        "Time(s)": 440
    },
    {
        "Altitude(m)": 570482.2608280366,
        "Argument of Periapsis(deg)": -0.017844600618136107,
        "Eccentricity": 0.0,
        "Inclination(deg)": 97.0,
        "Latitude(deg)": 46.007031222368646,
        "Longitude(deg)": -154.57817162499353,
        "Mean Anomaly(deg)": 133.663628896727,
        "RAAN(deg)": 120.00469504233038,
        "Satellite Name": "Starlink Shell 3 1833",
        "Satellite Number": 1833,
        "Semi-Major Axis(m)": 6938478.169268562,
        "Time(s)": 450
    },
    {
        "Altitude(m)": 570342.7680516867,
        "Argument of Periapsis(deg)": -0.018241147298539134,
        "Eccentricity": 0.0,
        "Inclination(deg)": 97.0,
        "Latitude(deg)": 45.39063548109774,
        "Longitude(deg)": -154.7753844970073,
        "Mean Anomaly(deg)": 134.28910509443202,
        "RAAN(deg)": 120.00479937660441,
        "Satellite Name": "Starlink Shell 3 1833",
        "Satellite Number": 1833,
        "Semi-Major Axis(m)": 6938478.169268562,
        "Time(s)": 460
    },
    {
        "Altitude(m)": 570203.7903039901,
        "Argument of Periapsis(deg)": -0.018637693978942157,
        "Eccentricity": 0.0,
        "Inclination(deg)": 97.0,
        "Latitude(deg)": 44.77395841920073,
        "Longitude(deg)": -154.96925884781953,
        "Mean Anomaly(deg)": 134.91458129213706,
        "RAAN(deg)": 120.00490371087841,
        "Satellite Name": "Starlink Shell 3 1833",
        "Satellite Number": 1833,
        "Semi-Major Axis(m)": 6938478.169268562,
        "Time(s)": 470
    },
    {
        "Altitude(m)": 570065.4143750801,
        "Argument of Periapsis(deg)": -0.019034240659345183,
        "Eccentricity": 0.0,
        "Inclination(deg)": 97.0,
        "Latitude(deg)": 44.157008746737525,
        "Longitude(deg)": -155.15993427296254,
        "Mean Anomaly(deg)": 135.5400574898421,
        "RAAN(deg)": 120.00500804515244,
        "Satellite Name": "Starlink Shell 3 1833",
        "Satellite Number": 1833,
        "Semi-Major Axis(m)": 6938478.169268562,
        "Time(s)": 480
    },
    {
        "Altitude(m)": 569927.7270189928,
        "Argument of Periapsis(deg)": -0.019430787339748207,
        "Eccentricity": 0.0,
        "Inclination(deg)": 97.0,
        "Latitude(deg)": 43.53979476746556,
        "Longitude(deg)": -155.3475432447133,
        "Mean Anomaly(deg)": 136.16553368754708,
        "RAAN(deg)": 120.00511237942644,
        "Satellite Name": "Starlink Shell 3 1833",
        "Satellite Number": 1833,
        "Semi-Major Axis(m)": 6938478.169268562,
        "Time(s)": 490
    },
    {
        "Altitude(m)": 569790.8149096257,
        "Argument of Periapsis(deg)": -0.019827334020151237,
        "Eccentricity": 0.0,
        "Inclination(deg)": 97.0,
        "Latitude(deg)": 42.9223244078386,
        "Longitude(deg)": -155.53221106466532,
        "Mean Anomaly(deg)": 136.79100988525224,
        "RAAN(deg)": 120.00521671370045,
        "Satellite Name": "Starlink Shell 3 1833",
        "Satellite Number": 1833,
        "Semi-Major Axis(m)": 6938478.169268562,
        "Time(s)": 500
    },
    {
        "Altitude(m)": 569654.7645966556,
        "Argument of Periapsis(deg)": -0.020223880700554257,
        "Eccentricity": 0.0,
        "Inclination(deg)": 97.0,
        "Latitude(deg)": 42.304605243792,
        "Longitude(deg)": -155.7140572950196,
        "Mean Anomaly(deg)": 137.41648608295725,
        "RAAN(deg)": 120.00532104797445,
        "Satellite Name": "Starlink Shell 3 1833",
        "Satellite Number": 1833,
        "Semi-Major Axis(m)": 6938478.169268562,
        "Time(s)": 510
    },
    {
        "Altitude(m)": 569519.6624614175,
        "Argument of Periapsis(deg)": -0.020620427380957283,
        "Eccentricity": 0.0,
        "Inclination(deg)": 97.0,
        "Latitude(deg)": 41.68664452549809,
        "Longitude(deg)": -155.89319564577866,
        "Mean Anomaly(deg)": 138.04196228066223,
        "RAAN(deg)": 120.00542538224848,
        "Satellite Name": "Starlink Shell 3 1833",
        "Satellite Number": 1833,
        "Semi-Major Axis(m)": 6938478.169268562,
        "Time(s)": 520
    },
    {
        "Altitude(m)": 569385.5946727804,
        "Argument of Periapsis(deg)": -0.021016974061360306,
        "Eccentricity": 0.0,
        "Inclination(deg)": 97.0,
        "Latitude(deg)": 41.068449200269065,
        "Longitude(deg)": -156.06973383336117,
        "Mean Anomaly(deg)": 138.6674384783673,
        "RAAN(deg)": 120.00552971652245,
        "Satellite Name": "Starlink Shell 3 1833",
        "Satellite Number": 1833,
        "Semi-Major Axis(m)": 6938478.169268562,
        "Time(s)": 530
    },
    {
        "Altitude(m)": 569252.6471430555,
        "Argument of Periapsis(deg)": -0.021413520741763333,
        "Eccentricity": 0.0,
        "Inclination(deg)": 97.0,
        "Latitude(deg)": 40.450025933765914,
        "Longitude(deg)": -156.24377492590443,
        "Mean Anomaly(deg)": 139.29291467607234,
        "RAAN(deg)": 120.00563405079647,
        "Satellite Name": "Starlink Shell 3 1833",
        "Satellite Number": 1833,
        "Semi-Major Axis(m)": 6938478.169268562,
        "Time(s)": 540
    },
    {
        "Altitude(m)": 569120.9054839436,
        "Argument of Periapsis(deg)": -0.021810067422166356,
        "Eccentricity": 0.0,
        "Inclination(deg)": 97.0,
        "Latitude(deg)": 39.831381129647504,
        "Longitude(deg)": -156.41541715168225,
        "Mean Anomaly(deg)": 139.91839087377735,
        "RAAN(deg)": 120.00573838507047,
        "Satellite Name": "Starlink Shell 3 1833",
        "Satellite Number": 1833,
        "Semi-Major Axis(m)": 6938478.169268562,
        "Time(s)": 550
    },
    {
        "Altitude(m)": 568990.4549625247,
        "Argument of Periapsis(deg)": -0.022206614102569383,
        "Eccentricity": 0.0,
        "Inclination(deg)": 97.0,
        "Latitude(deg)": 39.21252094779264,
        "Longitude(deg)": -156.5847536854791,
        "Mean Anomaly(deg)": 140.5438670714825,
        "RAAN(deg)": 120.0058427193445,
        "Satellite Name": "Starlink Shell 3 1833",
        "Satellite Number": 1833,
        "Semi-Major Axis(m)": 6938478.169268562,
        "Time(s)": 560
    }
]